HAWK-11C                
1 62381U 24247E   26068.51221537  .00009223  00000+0  33290-3 0  9992
2 62381  45.0045 114.8762 0005900 329.7040  30.3502 15.28848020 67743
STARLINK-34311          
1 64206U 25117D   26068.24299080  .00033166  00000+0  11270-2 0  9991
2 64206  53.1622  41.9398 0001292  81.7614 278.3534 15.30197645 44487
