[{"OBJECT_NAME":"HAWK-11C","OBJECT_ID":"2024-247E","EPOCH":"2026-03-09T12:17:35.407968","MEAN_MOTION":15.2884802,"ECCENTRICITY":0.00059001,"INCLINATION":45.0045,"RA_OF_ASC_NODE":114.8762,"ARG_OF_PERICENTER":329.704,"MEAN_ANOMALY":30.3502,"EPHEMERIS_TYPE":0,"CLASSIFICATION_TYPE":"U","NORAD_CAT_ID":62381,"ELEMENT_SET_NO":999,"REV_AT_EPOCH":6774,"BSTAR":0.00033290115,"MEAN_MOTION_DOT":9.223e-5,"MEAN_MOTION_DDOT":0},{"OBJECT_NAME":"STARLINK-34311","OBJECT_ID":"2025-117D","EPOCH":"2026-03-09T05:49:54.405120","MEAN_MOTION":15.30197645,"ECCENTRICITY":0.00012928,"INCLINATION":53.1622,"RA_OF_ASC_NODE":41.9398,"ARG_OF_PERICENTER":81.7614,"MEAN_ANOMALY":278.3534,"EPHEMERIS_TYPE":0,"CLASSIFICATION_TYPE":"U","NORAD_CAT_ID":64206,"ELEMENT_SET_NO":999,"REV_AT_EPOCH":4448,"BSTAR":0.0011270017,"MEAN_MOTION_DOT":0.00033166,"MEAN_MOTION_DDOT":0}]
